{
  "type": "FeatureCollection",
  "features": [
    {
      "type": "Feature",
      "properties": {
        "norad_id": 33986,
        "name": "COSMOS 2251 DEB",
        "group": "cosmos-2251-debris",
        "lat": -42.08038740186214,
        "lon": -70.30392844672676,
        "alt_km": 740.465797584332,
        "timestamp": "2025-12-11T15:53:39.937043+00:00",
        "meta_object_name": "COSMOS 2251 DEB",
        "meta_object_id": "1993-036FV",
        "meta_epoch": "2025-12-11T04:30:22.579776",
        "meta_mean_motion": 14.43191172,
        "meta_eccentricity": 0.00403487,
        "meta_inclination": 74.0369,
        "meta_ra_of_asc_node": 305.5554,
        "meta_arg_of_pericenter": 18.5446,
        "meta_mean_anomaly": 353.4588,
        "meta_ephemeris_type": 0,
        "meta_classification_type": "U",
        "meta_norad_cat_id": 33986,
        "meta_element_set_no": 999,
        "meta_rev_at_epoch": 88006,
        "meta_bstar": 0.0012648783,
        "meta_mean_motion_dot": 4.27e-05,
        "meta_mean_motion_ddot": 0,
        "tle_line1": "1 33986U 93036FV  25345.18776134  .00004270  00000+0  12649-2 0  9992",
        "tle_line2": "2 33986  74.0369 305.5554 0040348  18.5446 353.4588 14.43191172880065"
      },
      "geometry": {
        "type": "Point",
        "coordinates": [
          -70.30392844672676,
          -42.08038740186214
        ]
      }
    },
    {
      "type": "Feature",
      "properties": {
        "norad_id": 33990,
        "name": "COSMOS 2251 DEB",
        "group": "cosmos-2251-debris",
        "lat": 12.145390898091179,
        "lon": -68.71872597916206,
        "alt_km": 932.5938806768836,
        "timestamp": "2025-12-11T15:53:39.937053+00:00",
        "meta_object_name": "COSMOS 2251 DEB",
        "meta_object_id": "1993-036FZ",
        "meta_epoch": "2025-12-11T07:30:31.858272",
        "meta_mean_motion": 13.49986516,
        "meta_eccentricity": 0.04075478,
        "meta_inclination": 73.9289,
        "meta_ra_of_asc_node": 288.2852,
        "meta_arg_of_pericenter": 308.8509,
        "meta_mean_anomaly": 162.3055,
        "meta_ephemeris_type": 0,
        "meta_classification_type": "U",
        "meta_norad_cat_id": 33990,
        "meta_element_set_no": 999,
        "meta_rev_at_epoch": 82710,
        "meta_bstar": 0.0023556335,
        "meta_mean_motion_dot": 2.487e-05,
        "meta_mean_motion_ddot": 0,
        "tle_line1": "1 33990U 93036FZ  25345.31286873  .00002487  00000+0  23556-2 0  9995",
        "tle_line2": "2 33990  73.9289 288.2852 0407547 308.8509 162.3055 13.49986516827101"
      },
      "geometry": {
        "type": "Point",
        "coordinates": [
          -68.71872597916206,
          12.145390898091179
        ]
      }
    },
    {
      "type": "Feature",
      "properties": {
        "norad_id": 33992,
        "name": "COSMOS 2251 DEB",
        "group": "cosmos-2251-debris",
        "lat": 72.29711949021133,
        "lon": 43.645040053998756,
        "alt_km": 630.8470343422914,
        "timestamp": "2025-12-11T15:53:39.937064+00:00",
        "meta_object_name": "COSMOS 2251 DEB",
        "meta_object_id": "1993-036GB",
        "meta_epoch": "2025-12-11T07:36:34.178400",
        "meta_mean_motion": 14.6619616,
        "meta_eccentricity": 0.00516374,
        "meta_inclination": 74.0244,
        "meta_ra_of_asc_node": 340.4806,
        "meta_arg_of_pericenter": 98.7951,
        "meta_mean_anomaly": 322.3208,
        "meta_ephemeris_type": 0,
        "meta_classification_type": "U",
        "meta_norad_cat_id": 33992,
        "meta_element_set_no": 999,
        "meta_rev_at_epoch": 89104,
        "meta_bstar": 0.0013141028,
        "meta_mean_motion_dot": 7.354e-05,
        "meta_mean_motion_ddot": 0,
        "tle_line1": "1 33992U 93036GB  25345.31706225  .00007354  00000+0  13141-2 0  9992",
        "tle_line2": "2 33992  74.0244 340.4806 0051637  98.7951 322.3208 14.66196160891047"
      },
      "geometry": {
        "type": "Point",
        "coordinates": [
          43.645040053998756,
          72.29711949021133
        ]
      }
    },
    {
      "type": "Feature",
      "properties": {
        "norad_id": 33994,
        "name": "COSMOS 2251 DEB",
        "group": "cosmos-2251-debris",
        "lat": 73.88723349061259,
        "lon": -69.70594087431353,
        "alt_km": 756.7874558007488,
        "timestamp": "2025-12-11T15:53:39.937074+00:00",
        "meta_object_name": "COSMOS 2251 DEB",
        "meta_object_id": "1993-036GD",
        "meta_epoch": "2025-12-11T01:03:03.885408",
        "meta_mean_motion": 14.41212982,
        "meta_eccentricity": 0.00236025,
        "meta_inclination": 74.0418,
        "meta_ra_of_asc_node": 193.5481,
        "meta_arg_of_pericenter": 328.1464,
        "meta_mean_anomaly": 156.245,
        "meta_ephemeris_type": 0,
        "meta_classification_type": "U",
        "meta_norad_cat_id": 33994,
        "meta_element_set_no": 999,
        "meta_rev_at_epoch": 88395,
        "meta_bstar": 0.00012649986,
        "meta_mean_motion_dot": 3.83e-06,
        "meta_mean_motion_ddot": 0,
        "tle_line1": "1 33994U 93036GD  25345.04379497  .00000383  00000+0  12650-3 0  9991",
        "tle_line2": "2 33994  74.0418 193.5481 0023602 328.1464 156.2450 14.41212982883956"
      },
      "geometry": {
        "type": "Point",
        "coordinates": [
          -69.70594087431353,
          73.88723349061259
        ]
      }
    },
    {
      "type": "Feature",
      "properties": {
        "norad_id": 33995,
        "name": "COSMOS 2251 DEB",
        "group": "cosmos-2251-debris",
        "lat": -13.109516122956684,
        "lon": -54.860468360936565,
        "alt_km": 756.6222130925607,
        "timestamp": "2025-12-11T15:53:39.937084+00:00",
        "meta_object_name": "COSMOS 2251 DEB",
        "meta_object_id": "1993-036GE",
        "meta_epoch": "2025-12-10T15:34:19.991136",
        "meta_mean_motion": 14.34754442,
        "meta_eccentricity": 0.0060286,
        "meta_inclination": 74.0613,
        "meta_ra_of_asc_node": 123.1768,
        "meta_arg_of_pericenter": 138.1641,
        "meta_mean_anomaly": 222.4142,
        "meta_ephemeris_type": 0,
        "meta_classification_type": "U",
        "meta_norad_cat_id": 33995,
        "meta_element_set_no": 999,
        "meta_rev_at_epoch": 87489,
        "meta_bstar": 0.0016555,
        "meta_mean_motion_dot": 4.767e-05,
        "meta_mean_motion_ddot": 0,
        "tle_line1": "1 33995U 93036GE  25344.64884249  .00004767  00000+0  16555-2 0  9990",
        "tle_line2": "2 33995  74.0613 123.1768 0060286 138.1641 222.4142 14.34754442874897"
      },
      "geometry": {
        "type": "Point",
        "coordinates": [
          -54.860468360936565,
          -13.109516122956684
        ]
      }
    },
    {
      "type": "Feature",
      "properties": {
        "norad_id": 33999,
        "name": "COSMOS 2251 DEB",
        "group": "cosmos-2251-debris",
        "lat": 16.450034079208745,
        "lon": 48.04000673830977,
        "alt_km": 593.2329254115293,
        "timestamp": "2025-12-11T15:53:39.937094+00:00",
        "meta_object_name": "COSMOS 2251 DEB",
        "meta_object_id": "1993-036GJ",
        "meta_epoch": "2025-12-11T02:13:00.473376",
        "meta_mean_motion": 14.83299514,
        "meta_eccentricity": 0.00445554,
        "meta_inclination": 73.9185,
        "meta_ra_of_asc_node": 234.0623,
        "meta_arg_of_pericenter": 130.1362,
        "meta_mean_anomaly": 230.3733,
        "meta_ephemeris_type": 0,
        "meta_classification_type": "U",
        "meta_norad_cat_id": 33999,
        "meta_element_set_no": 999,
        "meta_rev_at_epoch": 89226,
        "meta_bstar": 0.0020650188,
        "meta_mean_motion_dot": 0.00017211,
        "meta_mean_motion_ddot": 0,
        "tle_line1": "1 33999U 93036GJ  25345.09236659  .00017211  00000+0  20650-2 0  9999",
        "tle_line2": "2 33999  73.9185 234.0623 0044555 130.1362 230.3733 14.83299514892261"
      },
      "geometry": {
        "type": "Point",
        "coordinates": [
          48.04000673830977,
          16.450034079208745
        ]
      }
    },
    {
      "type": "Feature",
      "properties": {
        "norad_id": 34001,
        "name": "COSMOS 2251 DEB",
        "group": "cosmos-2251-debris",
        "lat": -20.602267558388853,
        "lon": -82.60747871816675,
        "alt_km": 760.2109409999612,
        "timestamp": "2025-12-11T15:53:39.937104+00:00",
        "meta_object_name": "COSMOS 2251 DEB",
        "meta_object_id": "1993-036GL",
        "meta_epoch": "2025-12-10T20:05:13.884864",
        "meta_mean_motion": 14.37094734,
        "meta_eccentricity": 0.00198872,
        "meta_inclination": 74.0386,
        "meta_ra_of_asc_node": 285.0858,
        "meta_arg_of_pericenter": 6.5388,
        "meta_mean_anomaly": 24.1887,
        "meta_ephemeris_type": 0,
        "meta_classification_type": "U",
        "meta_norad_cat_id": 34001,
        "meta_element_set_no": 999,
        "meta_rev_at_epoch": 88119,
        "meta_bstar": 0.0003466625,
        "meta_mean_motion_dot": 1.006e-05,
        "meta_mean_motion_ddot": 0,
        "tle_line1": "1 34001U 93036GL  25344.83696626  .00001006  00000+0  34666-3 0  9997",
        "tle_line2": "2 34001  74.0386 285.0858 0019887   6.5388  24.1887 14.37094734881196"
      },
      "geometry": {
        "type": "Point",
        "coordinates": [
          -82.60747871816675,
          -20.602267558388853
        ]
      }
    }
  ]
}